{
  "type": "FeatureCollection",
  "features": [
    {
      "type": "Feature",
      "properties": {
        "norad_id": 41556,
        "name": "ZIYUAN 3-2 (ZY 3-2)",
        "group": "resource",
        "lat": -81.91960097688455,
        "lon": 176.39944382871604,
        "alt_km": 500.6863456960873,
        "timestamp": "2025-12-14T14:39:29.033734+00:00",
        "meta_object_name": "ZIYUAN 3-2 (ZY 3-2)",
        "meta_object_id": "2016-033A",
        "meta_epoch": "2025-12-13T23:17:00.368160",
        "meta_mean_motion": 15.215274,
        "meta_eccentricity": 0.00125951,
        "meta_inclination": 97.4044,
        "meta_ra_of_asc_node": 62.1172,
        "meta_arg_of_pericenter": 244.4038,
        "meta_mean_anomaly": 115.5896,
        "meta_ephemeris_type": 0,
        "meta_classification_type": "U",
        "meta_norad_cat_id": 41556,
        "meta_element_set_no": 999,
        "meta_rev_at_epoch": 52982,
        "meta_bstar": 0.00039595446,
        "meta_mean_motion_dot": 8.869e-05,
        "meta_mean_motion_ddot": 0,
        "tle_line1": "1 41556U 16033A   25347.97014315  .00008869  00000+0  39595-3 0  9999",
        "tle_line2": "2 41556  97.4044  62.1172 0012595 244.4038 115.5896 15.21527400529825"
      },
      "geometry": {
        "type": "Point",
        "coordinates": [
          176.39944382871604,
          -81.91960097688455
        ]
      }
    },
    {
      "type": "Feature",
      "properties": {
        "norad_id": 41599,
        "name": "CARTOSAT-2C",
        "group": "resource",
        "lat": -15.813690937270007,
        "lon": -136.2897346169742,
        "alt_km": 518.206348060613,
        "timestamp": "2025-12-14T14:39:29.033745+00:00",
        "meta_object_name": "CARTOSAT-2C",
        "meta_object_id": "2016-040A",
        "meta_epoch": "2025-12-13T23:34:25.001184",
        "meta_mean_motion": 15.19312198,
        "meta_eccentricity": 0.00107369,
        "meta_inclination": 97.4767,
        "meta_ra_of_asc_node": 45.2198,
        "meta_arg_of_pericenter": 60.8197,
        "meta_mean_anomaly": 299.411,
        "meta_ephemeris_type": 0,
        "meta_classification_type": "U",
        "meta_norad_cat_id": 41599,
        "meta_element_set_no": 999,
        "meta_rev_at_epoch": 52559,
        "meta_bstar": 0.00029205182,
        "meta_mean_motion_dot": 6.107e-05,
        "meta_mean_motion_ddot": 0,
        "tle_line1": "1 41599U 16040A   25347.98223381  .00006107  00000+0  29205-3 0  9990",
        "tle_line2": "2 41599  97.4767  45.2198 0010736  60.8197 299.4110 15.19312198525599"
      },
      "geometry": {
        "type": "Point",
        "coordinates": [
          -136.2897346169742,
          -15.813690937270007
        ]
      }
    },
    {
      "type": "Feature",
      "properties": {
        "norad_id": 41601,
        "name": "SKYSAT-C1",
        "group": "resource",
        "lat": -19.64703899409336,
        "lon": 28.02695079410168,
        "alt_km": 471.86503428748347,
        "timestamp": "2025-12-14T14:39:29.033755+00:00",
        "meta_object_name": "SKYSAT-C1",
        "meta_object_id": "2016-040C",
        "meta_epoch": "2025-12-13T15:14:23.179200",
        "meta_mean_motion": 15.32613169,
        "meta_eccentricity": 0.00022761,
        "meta_inclination": 96.9828,
        "meta_ra_of_asc_node": 24.5981,
        "meta_arg_of_pericenter": 13.2546,
        "meta_mean_anomaly": 346.8756,
        "meta_ephemeris_type": 0,
        "meta_classification_type": "U",
        "meta_norad_cat_id": 41601,
        "meta_element_set_no": 999,
        "meta_rev_at_epoch": 52941,
        "meta_bstar": 0.00035697669,
        "meta_mean_motion_dot": 0.00011175,
        "meta_mean_motion_ddot": 0,
        "tle_line1": "1 41601U 16040C   25347.63499050  .00011175  00000+0  35698-3 0  9998",
        "tle_line2": "2 41601  96.9828  24.5981 0002276  13.2546 346.8756 15.32613169529410"
      },
      "geometry": {
        "type": "Point",
        "coordinates": [
          28.02695079410168,
          -19.64703899409336
        ]
      }
    },
    {
      "type": "Feature",
      "properties": {
        "norad_id": 41603,
        "name": "LAPAN-A3",
        "group": "resource",
        "lat": 62.001378424763395,
        "lon": 179.74211901374915,
        "alt_km": 470.7676515061112,
        "timestamp": "2025-12-14T14:39:29.033766+00:00",
        "meta_object_name": "LAPAN-A3",
        "meta_object_id": "2016-040E",
        "meta_epoch": "2025-12-14T00:02:10.457952",
        "meta_mean_motion": 15.31565883,
        "meta_eccentricity": 0.00094855,
        "meta_inclination": 97.143,
        "meta_ra_of_asc_node": 345.512,
        "meta_arg_of_pericenter": 328.9933,
        "meta_mean_anomaly": 31.0748,
        "meta_ephemeris_type": 0,
        "meta_classification_type": "U",
        "meta_norad_cat_id": 41603,
        "meta_element_set_no": 999,
        "meta_rev_at_epoch": 52645,
        "meta_bstar": 0.00017629531,
        "meta_mean_motion_dot": 5.306e-05,
        "meta_mean_motion_ddot": 0,
        "tle_line1": "1 41603U 16040E   25348.00150993  .00005306  00000+0  17630-3 0  9997",
        "tle_line2": "2 41603  97.1430 345.5120 0009485 328.9933  31.0748 15.31565883526453"
      },
      "geometry": {
        "type": "Point",
        "coordinates": [
          179.74211901374915,
          62.001378424763395
        ]
      }
    },
    {
      "type": "Feature",
      "properties": {
        "norad_id": 41604,
        "name": "BIROS",
        "group": "resource",
        "lat": -25.81782691929793,
        "lon": 23.561654506733742,
        "alt_km": 308.97387488051663,
        "timestamp": "2025-12-14T14:39:29.033776+00:00",
        "meta_object_name": "BIROS",
        "meta_object_id": "2016-040F",
        "meta_epoch": "2025-12-13T14:36:18.084960",
        "meta_mean_motion": 15.90136506,
        "meta_eccentricity": 0.00035025,
        "meta_inclination": 97.0682,
        "meta_ra_of_asc_node": 19.0764,
        "meta_arg_of_pericenter": 146.2595,
        "meta_mean_anomaly": 213.8902,
        "meta_ephemeris_type": 0,
        "meta_classification_type": "U",
        "meta_norad_cat_id": 41604,
        "meta_element_set_no": 999,
        "meta_rev_at_epoch": 52886,
        "meta_bstar": 0.00066760898,
        "meta_mean_motion_dot": 0.00199314,
        "meta_mean_motion_ddot": 1.6332253e-05,
        "tle_line1": "1 41604U 16040F   25347.60854265  .00199314  16332-4  66761-3 0  9998",
        "tle_line2": "2 41604  97.0682  19.0764 0003502 146.2595 213.8902 15.90136506528868"
      },
      "geometry": {
        "type": "Point",
        "coordinates": [
          23.561654506733742,
          -25.81782691929793
        ]
      }
    },
    {
      "type": "Feature",
      "properties": {
        "norad_id": 41727,
        "name": "GAOFEN-3",
        "group": "resource",
        "lat": 13.29082182974091,
        "lon": -7.832712626322571,
        "alt_km": 751.5602012803483,
        "timestamp": "2025-12-14T14:39:29.033786+00:00",
        "meta_object_name": "GAOFEN-3",
        "meta_object_id": "2016-049A",
        "meta_epoch": "2025-12-13T23:36:37.033344",
        "meta_mean_motion": 14.42214363,
        "meta_eccentricity": 0.00013931,
        "meta_inclination": 98.4044,
        "meta_ra_of_asc_node": 353.5512,
        "meta_arg_of_pericenter": 60.4782,
        "meta_mean_anomaly": 299.6546,
        "meta_ephemeris_type": 0,
        "meta_classification_type": "U",
        "meta_norad_cat_id": 41727,
        "meta_element_set_no": 999,
        "meta_rev_at_epoch": 49195,
        "meta_bstar": 7.5996679e-05,
        "meta_mean_motion_dot": 2.07e-06,
        "meta_mean_motion_ddot": 0,
        "tle_line1": "1 41727U 16049A   25347.98376196  .00000207  00000+0  75997-4 0  9990",
        "tle_line2": "2 41727  98.4044 353.5512 0001393  60.4782 299.6546 14.42214363491958"
      },
      "geometry": {
        "type": "Point",
        "coordinates": [
          -7.832712626322571,
          13.29082182974091
        ]
      }
    },
    {
      "type": "Feature",
      "properties": {
        "norad_id": 41771,
        "name": "SKYSAT-C4",
        "group": "resource",
        "lat": -19.40431696005642,
        "lon": 16.166191901646805,
        "alt_km": 445.51445071446597,
        "timestamp": "2025-12-14T14:39:29.033796+00:00",
        "meta_object_name": "SKYSAT-C4",
        "meta_object_id": "2016-058B",
        "meta_epoch": "2025-12-13T23:10:16.695264",
        "meta_mean_motion": 15.42295302,
        "meta_eccentricity": 0.00016339,
        "meta_inclination": 96.9381,
        "meta_ra_of_asc_node": 13.0937,
        "meta_arg_of_pericenter": 133.9284,
        "meta_mean_anomaly": 226.2099,
        "meta_ephemeris_type": 0,
        "meta_classification_type": "U",
        "meta_norad_cat_id": 41771,
        "meta_element_set_no": 999,
        "meta_rev_at_epoch": 51686,
        "meta_bstar": 0.00038840222,
        "meta_mean_motion_dot": 0.00016654,
        "meta_mean_motion_ddot": 0,
        "tle_line1": "1 41771U 16058B   25347.96547101  .00016654  00000+0  38840-3 0  9991",
        "tle_line2": "2 41771  96.9381  13.0937 0001633 133.9284 226.2099 15.42295302516863"
      },
      "geometry": {
        "type": "Point",
        "coordinates": [
          16.166191901646805,
          -19.40431696005642
        ]
      }
    }
  ]
}